{
  "type": "FeatureCollection",
  "features": [
    {
      "type": "Feature",
      "properties": {
        "norad_id": 33765,
        "name": "COSMOS 2251 DEB",
        "group": "cosmos-2251-debris",
        "lat": -27.614477268185613,
        "lon": 170.5811940432007,
        "alt_km": 519.0926222758799,
        "timestamp": "2025-12-09T18:55:17.624096+00:00",
        "meta_object_name": "COSMOS 2251 DEB",
        "meta_object_id": "1993-036N",
        "meta_epoch": "2025-12-09T00:39:09.661824",
        "meta_mean_motion": 15.09638383,
        "meta_eccentricity": 0.00662746,
        "meta_inclination": 74.0093,
        "meta_ra_of_asc_node": 180.7811,
        "meta_arg_of_pericenter": 273.6216,
        "meta_mean_anomaly": 241.793,
        "meta_ephemeris_type": 0,
        "meta_classification_type": "U",
        "meta_norad_cat_id": 33765,
        "meta_element_set_no": 999,
        "meta_rev_at_epoch": 89562,
        "meta_bstar": 0.0022368597,
        "meta_mean_motion_dot": 0.00038062,
        "meta_mean_motion_ddot": 0,
        "tle_line1": "1 33765U 93036N   25343.02719516  .00038062  00000+0  22369-2 0  9995",
        "tle_line2": "2 33765  74.0093 180.7811 0066274 273.6216 241.7930 15.09638383895629"
      },
      "geometry": {
        "type": "Point",
        "coordinates": [
          170.5811940432007,
          -27.614477268185613
        ]
      }
    },
    {
      "type": "Feature",
      "properties": {
        "norad_id": 33766,
        "name": "COSMOS 2251 DEB",
        "group": "cosmos-2251-debris",
        "lat": -70.13835977859956,
        "lon": 12.021875527618546,
        "alt_km": 779.3691061653735,
        "timestamp": "2025-12-09T18:55:17.624106+00:00",
        "meta_object_name": "COSMOS 2251 DEB",
        "meta_object_id": "1993-036P",
        "meta_epoch": "2025-12-09T12:41:59.239968",
        "meta_mean_motion": 14.34919699,
        "meta_eccentricity": 0.00639848,
        "meta_inclination": 74.1856,
        "meta_ra_of_asc_node": 140.8091,
        "meta_arg_of_pericenter": 345.0925,
        "meta_mean_anomaly": 14.8339,
        "meta_ephemeris_type": 0,
        "meta_classification_type": "U",
        "meta_norad_cat_id": 33766,
        "meta_element_set_no": 999,
        "meta_rev_at_epoch": 87699,
        "meta_bstar": 0.00081164855,
        "meta_mean_motion_dot": 2.337e-05,
        "meta_mean_motion_ddot": 0,
        "tle_line1": "1 33766U 93036P   25343.52915787  .00002337  00000+0  81165-3 0  9995",
        "tle_line2": "2 33766  74.1856 140.8091 0063984 345.0925  14.8339 14.34919699876991"
      },
      "geometry": {
        "type": "Point",
        "coordinates": [
          12.021875527618546,
          -70.13835977859956
        ]
      }
    },
    {
      "type": "Feature",
      "properties": {
        "norad_id": 33768,
        "name": "COSMOS 2251 DEB",
        "group": "cosmos-2251-debris",
        "lat": -73.58903261493414,
        "lon": 148.75350016873347,
        "alt_km": 1128.0152273714793,
        "timestamp": "2025-12-09T18:55:17.624117+00:00",
        "meta_object_name": "COSMOS 2251 DEB",
        "meta_object_id": "1993-036R",
        "meta_epoch": "2025-12-09T11:19:56.912736",
        "meta_mean_motion": 13.58450802,
        "meta_eccentricity": 0.03661591,
        "meta_inclination": 74.0686,
        "meta_ra_of_asc_node": 225.1408,
        "meta_arg_of_pericenter": 23.5977,
        "meta_mean_anomaly": 148.5343,
        "meta_ephemeris_type": 0,
        "meta_classification_type": "U",
        "meta_norad_cat_id": 33768,
        "meta_element_set_no": 999,
        "meta_rev_at_epoch": 83251,
        "meta_bstar": 0.00056531478,
        "meta_mean_motion_dot": 6.17e-06,
        "meta_mean_motion_ddot": 0,
        "tle_line1": "1 33768U 93036R   25343.47218649  .00000617  00000+0  56531-3 0  9992",
        "tle_line2": "2 33768  74.0686 225.1408 0366159  23.5977 148.5343 13.58450802832518"
      },
      "geometry": {
        "type": "Point",
        "coordinates": [
          148.75350016873347,
          -73.58903261493414
        ]
      }
    },
    {
      "type": "Feature",
      "properties": {
        "norad_id": 33779,
        "name": "COSMOS 2251 DEB",
        "group": "cosmos-2251-debris",
        "lat": -41.89202214538503,
        "lon": 11.314532309646992,
        "alt_km": 654.4595614772097,
        "timestamp": "2025-12-09T18:55:17.624128+00:00",
        "meta_object_name": "COSMOS 2251 DEB",
        "meta_object_id": "1993-036U",
        "meta_epoch": "2025-12-09T13:08:57.772896",
        "meta_mean_motion": 14.70332632,
        "meta_eccentricity": 0.0017221,
        "meta_inclination": 74.0448,
        "meta_ra_of_asc_node": 176.9109,
        "meta_arg_of_pericenter": 210.8307,
        "meta_mean_anomaly": 180.4936,
        "meta_ephemeris_type": 0,
        "meta_classification_type": "U",
        "meta_norad_cat_id": 33779,
        "meta_element_set_no": 999,
        "meta_rev_at_epoch": 88481,
        "meta_bstar": 0.0021833978,
        "meta_mean_motion_dot": 0.00013219,
        "meta_mean_motion_ddot": 0,
        "tle_line1": "1 33779U 93036U   25343.54789089  .00013219  00000+0  21834-2 0  9992",
        "tle_line2": "2 33779  74.0448 176.9109 0017221 210.8307 180.4936 14.70332632884816"
      },
      "geometry": {
        "type": "Point",
        "coordinates": [
          11.314532309646992,
          -41.89202214538503
        ]
      }
    },
    {
      "type": "Feature",
      "properties": {
        "norad_id": 33782,
        "name": "COSMOS 2251 DEB",
        "group": "cosmos-2251-debris",
        "lat": -54.3288849906275,
        "lon": -100.50067354338177,
        "alt_km": 753.4428763020733,
        "timestamp": "2025-12-09T18:55:17.624138+00:00",
        "meta_object_name": "COSMOS 2251 DEB",
        "meta_object_id": "1993-036X",
        "meta_epoch": "2025-12-09T13:03:54.053568",
        "meta_mean_motion": 14.40434503,
        "meta_eccentricity": 0.00206439,
        "meta_inclination": 74.0339,
        "meta_ra_of_asc_node": 283.4561,
        "meta_arg_of_pericenter": 348.7434,
        "meta_mean_anomaly": 128.9341,
        "meta_ephemeris_type": 0,
        "meta_classification_type": "U",
        "meta_norad_cat_id": 33782,
        "meta_element_set_no": 999,
        "meta_rev_at_epoch": 88080,
        "meta_bstar": 0.00079266089,
        "meta_mean_motion_dot": 2.499e-05,
        "meta_mean_motion_ddot": 0,
        "tle_line1": "1 33782U 93036X   25343.54437562  .00002499  00000+0  79266-3 0  9993",
        "tle_line2": "2 33782  74.0339 283.4561 0020643 348.7434 128.9341 14.40434503880808"
      },
      "geometry": {
        "type": "Point",
        "coordinates": [
          -100.50067354338177,
          -54.3288849906275
        ]
      }
    },
    {
      "type": "Feature",
      "properties": {
        "norad_id": 33785,
        "name": "COSMOS 2251 DEB",
        "group": "cosmos-2251-debris",
        "lat": -15.888294603250715,
        "lon": -109.56041137738781,
        "alt_km": 679.5514612244497,
        "timestamp": "2025-12-09T18:55:17.624149+00:00",
        "meta_object_name": "COSMOS 2251 DEB",
        "meta_object_id": "1993-036AA",
        "meta_epoch": "2025-12-09T08:32:13.897824",
        "meta_mean_motion": 14.70359176,
        "meta_eccentricity": 0.00220118,
        "meta_inclination": 73.8675,
        "meta_ra_of_asc_node": 66.5615,
        "meta_arg_of_pericenter": 6.6049,
        "meta_mean_anomaly": 60.5006,
        "meta_ephemeris_type": 0,
        "meta_classification_type": "U",
        "meta_norad_cat_id": 33785,
        "meta_element_set_no": 999,
        "meta_rev_at_epoch": 88457,
        "meta_bstar": 0.0027575474,
        "meta_mean_motion_dot": 0.00016745,
        "meta_mean_motion_ddot": 0,
        "tle_line1": "1 33785U 93036AA  25343.35571641  .00016745  00000+0  27575-2 0  9996",
        "tle_line2": "2 33785  73.8675  66.5615 0022011   6.6049  60.5006 14.70359176884576"
      },
      "geometry": {
        "type": "Point",
        "coordinates": [
          -109.56041137738781,
          -15.888294603250715
        ]
      }
    },
    {
      "type": "Feature",
      "properties": {
        "norad_id": 33789,
        "name": "COSMOS 2251 DEB",
        "group": "cosmos-2251-debris",
        "lat": 19.95304781842806,
        "lon": -93.53810101393162,
        "alt_km": 816.2145771889673,
        "timestamp": "2025-12-09T18:55:17.624159+00:00",
        "meta_object_name": "COSMOS 2251 DEB",
        "meta_object_id": "1993-036AE",
        "meta_epoch": "2025-12-09T09:51:58.171680",
        "meta_mean_motion": 13.88784385,
        "meta_eccentricity": 0.02403159,
        "meta_inclination": 74.0651,
        "meta_ra_of_asc_node": 93.0553,
        "meta_arg_of_pericenter": 209.4244,
        "meta_mean_anomaly": 226.0844,
        "meta_ephemeris_type": 0,
        "meta_classification_type": "U",
        "meta_norad_cat_id": 33789,
        "meta_element_set_no": 999,
        "meta_rev_at_epoch": 85049,
        "meta_bstar": 0.0014006222,
        "meta_mean_motion_dot": 2.106e-05,
        "meta_mean_motion_ddot": 0,
        "tle_line1": "1 33789U 93036AE  25343.41108995  .00002106  00000+0  14006-2 0  9996",
        "tle_line2": "2 33789  74.0651  93.0553 0240315 209.4244 226.0844 13.88784385850497"
      },
      "geometry": {
        "type": "Point",
        "coordinates": [
          -93.53810101393162,
          19.95304781842806
        ]
      }
    }
  ]
}